RSP-03                  
1 65732U 98067XL  26045.31312046  .02432991  11836-4  13370-2 0  9999
2 65732  51.6105 165.6138 0009764 331.2305  28.8173 16.18709094 23230
YOTSUBA-KULOVER         
1 65941U 98067XN  26045.24480233  .00148508  00000+0  10774-2 0  9994
2 65941  51.6246 178.0885 0004449 299.8232  60.2324 15.72411013 19804
BOTAN                   
1 65942U 98067XP  26045.25685187  .00463784  00000+0  15238-2 0  9997
2 65942  51.6157 173.6046 0007973 322.9275  37.1178 15.88758377 19866
E-KAGAKU-1              
1 65943U 98067XQ  26044.61038670  .00127268  00000+0  93828-3 0  9992
2 65943  51.6267 181.3641 0004184 310.1577  49.9054 15.72107679 19704
HRC MONOBLOCK CAMERA    
1 66052U 98067XR  26045.39604987  .00048108  00000+0  59167-3 0  9993
2 66052  51.6271 182.8647 0001739   9.0513 351.0511 15.59764050 18756
HTV-X1                  
1 66174U 25241A   26045.21445063  .00008429  00000+0  16304-3 0  9999
2 66174  51.6315 188.3997 0011062  96.9141 263.3106 15.48593530   512
SZ-21 MODULE            
1 66515U 25246C   26045.18294127  .00036199  00000+0  33554-3 0  9993
2 66515  41.4766 347.8589 0002276 294.3248  65.7355 15.66742900 14383
SHENZHOU-22             
1 66645U 25272A   26045.22255719  .00017014  00000+0  21136-3 0  9993
2 66645  41.4681 350.8379 0004138  88.4317 271.6995 15.59592517267648
SOYUZ-MS 28             
1 66664U 25275A   26045.40804667  .00008682  00000+0  16764-3 0  9991
2 66664  51.6315 187.4424 0011059  97.5886 262.6359 15.48597273552725
DUPLEX                  
1 66906U 98067XS  26044.94185601  .00034258  00000+0  51454-3 0  9990
2 66906  51.6281 188.0819 0001355  76.7932 283.3210 15.54550697 11430
ISS OBJECT XT           
1 66907U 98067XT  26044.64775474  .00104949  00000+0  11359-2 0  9995
2 66907  51.6268 187.6156 0002078 295.0599  65.0179 15.62747982 11414
ISS OBJECT XU           
1 66908U 98067XU  26045.41438169  .00119335  00000+0  12781-2 0  9994
2 66908  51.6257 183.7323 0002048 307.7011  52.3797 15.62956480 11536
